ARIANE 40 R/B           
1 20443U 90005H   25330.75537738  .00000401  00000+0  14139-3 0  9990
2 20443  98.3265  29.3835 0010780 149.5945 210.5871 14.39780424877997
DELTA 2 R/B(1)          
1 20453U 90008B   25330.52487398  .00034536  00000+0  58153-3 0  9995
2 20453  35.6053 125.1080 0114071  30.0740 330.6482 15.43609985910122
COSMOS 2058             
1 20465U 90010A   25330.85762641  .00004683  00000+0  28432-3 0  9991
2 20465  82.4631 148.6553 0009221 337.9919  22.0914 15.10262309926712
SL-14 R/B               
1 20466U 90010B   25330.62449945  .00000534  00000+0  62068-4 0  9991
2 20466  82.5031   4.1828 0018294 280.3235  79.5917 14.83449227913206
SL-14 R/B               
1 20511U 90018B   25331.01587838  .00000562  00000+0  67675-4 0  9998
2 20511  82.5199 319.0630 0017911  71.7049 288.6112 14.82022147907379
HST                     
1 20580U 90037B   25330.52775022  .00008365  00000+0  29202-3 0  9996
2 20580  28.4702  22.8054 0002051  68.3896 291.6918 15.27719924757517
SL-16 R/B               
1 20625U 90046B   25330.91078318  .00000300  00000+0  17949-3 0  9999
2 20625  70.9965 153.7636 0012174 102.8991 257.3492 14.14992826833854
COSMOS 2084             
1 20663U 90055A   25331.01971498  .00003277  00000+0  24200-3 0  9998
2 20663  62.7913 325.5512 0034217 172.7755 187.3846 15.04872392920864
SL-6 R/B(2)             
1 20666U 90055D   25330.93303092  .00002853  00000+0  22543-3 0  9997
2 20666  62.7831 243.1188 0011441 296.0851  63.9070 15.02968611922746
SL-8 R/B                
1 20775U 90078B   25330.56468854  .00026974  00000+0  83485-3 0  9992
2 20775  82.9053 343.7774 0377238   0.2000 359.9295 14.84943839793977
SL-8 R/B                
1 21088U 91006B   25330.91774354  .00000111  00000+0  96772-4 0  9995
2 21088  82.9430 246.4807 0021835 326.4045 103.5392 13.77487368749929
OKEAN-3                 
1 21397U 91039A   25330.78161712  .00005128  00000+0  36896-3 0  9990
2 21397  82.5175  76.4901 0013840 324.6664  35.3643 15.03961519849562
