CCSDS_OMM_VERS = 2.0
CREATION_DATE  = 
ORIGINATOR     = 

OBJECT_NAME    = ARIANE 40 R/B
OBJECT_ID      = 1990-005H
CENTER_NAME    = EARTH
REF_FRAME      = TEME
TIME_SYSTEM    = UTC
MEAN_ELEMENT_THEORY = SGP/SGP4

EPOCH          = 2025-11-26T18:07:44.605632
MEAN_MOTION    = 14.39780424
ECCENTRICITY   = .00107802
INCLINATION    = 98.3265
RA_OF_ASC_NODE = 29.3835
ARG_OF_PERICENTER = 149.5945
MEAN_ANOMALY   = 210.5871

EPHEMERIS_TYPE = 0
CLASSIFICATION_TYPE = U
NORAD_CAT_ID   = 20443
ELEMENT_SET_NO = 999
REV_AT_EPOCH   = 87799
BSTAR          = .14138776E-3
MEAN_MOTION_DOT = .401E-5
MEAN_MOTION_DDOT = 0

CCSDS_OMM_VERS = 2.0
CREATION_DATE  = 
ORIGINATOR     = 

OBJECT_NAME    = DELTA 2 R/B(1)
OBJECT_ID      = 1990-008B
CENTER_NAME    = EARTH
REF_FRAME      = TEME
TIME_SYSTEM    = UTC
MEAN_ELEMENT_THEORY = SGP/SGP4

EPOCH          = 2025-11-26T12:35:49.111872
MEAN_MOTION    = 15.43609985
ECCENTRICITY   = .01140714
INCLINATION    = 35.6053
RA_OF_ASC_NODE = 125.1080
ARG_OF_PERICENTER = 30.0740
MEAN_ANOMALY   = 330.6482

EPHEMERIS_TYPE = 0
CLASSIFICATION_TYPE = U
NORAD_CAT_ID   = 20453
ELEMENT_SET_NO = 999
REV_AT_EPOCH   = 91012
BSTAR          = .58153229E-3
MEAN_MOTION_DOT = .34536E-3
MEAN_MOTION_DDOT = 0

CCSDS_OMM_VERS = 2.0
CREATION_DATE  = 
ORIGINATOR     = 

OBJECT_NAME    = COSMOS 2058
OBJECT_ID      = 1990-010A
CENTER_NAME    = EARTH
REF_FRAME      = TEME
TIME_SYSTEM    = UTC
MEAN_ELEMENT_THEORY = SGP/SGP4

EPOCH          = 2025-11-26T20:34:58.921824
MEAN_MOTION    = 15.10262309
ECCENTRICITY   = .00092219
INCLINATION    = 82.4631
RA_OF_ASC_NODE = 148.6553
ARG_OF_PERICENTER = 337.9919
MEAN_ANOMALY   = 22.0914

EPHEMERIS_TYPE = 0
CLASSIFICATION_TYPE = U
NORAD_CAT_ID   = 20465
ELEMENT_SET_NO = 999
REV_AT_EPOCH   = 92671
BSTAR          = .28432154E-3
MEAN_MOTION_DOT = .4683E-4
MEAN_MOTION_DDOT = 0

CCSDS_OMM_VERS = 2.0
CREATION_DATE  = 
ORIGINATOR     = 

OBJECT_NAME    = SL-14 R/B
OBJECT_ID      = 1990-010B
CENTER_NAME    = EARTH
REF_FRAME      = TEME
TIME_SYSTEM    = UTC
MEAN_ELEMENT_THEORY = SGP/SGP4

EPOCH          = 2025-11-26T14:59:16.752480
MEAN_MOTION    = 14.83449227
ECCENTRICITY   = .00182949
INCLINATION    = 82.5031
RA_OF_ASC_NODE = 4.1828
ARG_OF_PERICENTER = 280.3235
MEAN_ANOMALY   = 79.5917

EPHEMERIS_TYPE = 0
CLASSIFICATION_TYPE = U
NORAD_CAT_ID   = 20466
ELEMENT_SET_NO = 999
REV_AT_EPOCH   = 91320
BSTAR          = .62067982E-4
MEAN_MOTION_DOT = .534E-5
MEAN_MOTION_DDOT = 0

CCSDS_OMM_VERS = 2.0
CREATION_DATE  = 
ORIGINATOR     = 

OBJECT_NAME    = SL-14 R/B
OBJECT_ID      = 1990-018B
CENTER_NAME    = EARTH
REF_FRAME      = TEME
TIME_SYSTEM    = UTC
MEAN_ELEMENT_THEORY = SGP/SGP4

EPOCH          = 2025-11-27T00:22:51.892032
MEAN_MOTION    = 14.82022147
ECCENTRICITY   = .0017911
INCLINATION    = 82.5199
RA_OF_ASC_NODE = 319.0630
ARG_OF_PERICENTER = 71.7049
MEAN_ANOMALY   = 288.6112

EPHEMERIS_TYPE = 0
CLASSIFICATION_TYPE = U
NORAD_CAT_ID   = 20511
ELEMENT_SET_NO = 999
REV_AT_EPOCH   = 90737
BSTAR          = .67675E-4
MEAN_MOTION_DOT = .562E-5
MEAN_MOTION_DDOT = 0

CCSDS_OMM_VERS = 2.0
CREATION_DATE  = 
ORIGINATOR     = 

OBJECT_NAME    = HST
OBJECT_ID      = 1990-037B
CENTER_NAME    = EARTH
REF_FRAME      = TEME
TIME_SYSTEM    = UTC
MEAN_ELEMENT_THEORY = SGP/SGP4

EPOCH          = 2025-11-26T12:39:57.619008
MEAN_MOTION    = 15.27719924
ECCENTRICITY   = .0002051
INCLINATION    = 28.4702
RA_OF_ASC_NODE = 22.8054
ARG_OF_PERICENTER = 68.3896
MEAN_ANOMALY   = 291.6918

EPHEMERIS_TYPE = 0
CLASSIFICATION_TYPE = U
NORAD_CAT_ID   = 20580
ELEMENT_SET_NO = 999
REV_AT_EPOCH   = 75751
BSTAR          = .29202E-3
MEAN_MOTION_DOT = .8365E-4
MEAN_MOTION_DDOT = 0

CCSDS_OMM_VERS = 2.0
CREATION_DATE  = 
ORIGINATOR     = 

OBJECT_NAME    = SL-16 R/B
OBJECT_ID      = 1990-046B
CENTER_NAME    = EARTH
REF_FRAME      = TEME
TIME_SYSTEM    = UTC
MEAN_ELEMENT_THEORY = SGP/SGP4

EPOCH          = 2025-11-26T21:51:31.666752
MEAN_MOTION    = 14.14992826
ECCENTRICITY   = .0012174
INCLINATION    = 70.9965
RA_OF_ASC_NODE = 153.7636
ARG_OF_PERICENTER = 102.8991
MEAN_ANOMALY   = 257.3492

EPHEMERIS_TYPE = 0
CLASSIFICATION_TYPE = U
NORAD_CAT_ID   = 20625
ELEMENT_SET_NO = 999
REV_AT_EPOCH   = 83385
BSTAR          = .17949E-3
MEAN_MOTION_DOT = .3E-5
MEAN_MOTION_DDOT = 0

CCSDS_OMM_VERS = 2.0
CREATION_DATE  = 
ORIGINATOR     = 

OBJECT_NAME    = COSMOS 2084
OBJECT_ID      = 1990-055A
CENTER_NAME    = EARTH
REF_FRAME      = TEME
TIME_SYSTEM    = UTC
MEAN_ELEMENT_THEORY = SGP/SGP4

EPOCH          = 2025-11-27T00:28:23.374272
MEAN_MOTION    = 15.04872392
ECCENTRICITY   = .0034217
INCLINATION    = 62.7913
RA_OF_ASC_NODE = 325.5512
ARG_OF_PERICENTER = 172.7755
MEAN_ANOMALY   = 187.3846

EPHEMERIS_TYPE = 0
CLASSIFICATION_TYPE = U
NORAD_CAT_ID   = 20663
ELEMENT_SET_NO = 999
REV_AT_EPOCH   = 92086
BSTAR          = .242E-3
MEAN_MOTION_DOT = .3277E-4
MEAN_MOTION_DDOT = 0

CCSDS_OMM_VERS = 2.0
CREATION_DATE  = 
ORIGINATOR     = 

OBJECT_NAME    = SL-6 R/B(2)
OBJECT_ID      = 1990-055D
CENTER_NAME    = EARTH
REF_FRAME      = TEME
TIME_SYSTEM    = UTC
MEAN_ELEMENT_THEORY = SGP/SGP4

EPOCH          = 2025-11-26T22:23:33.871488
MEAN_MOTION    = 15.02968611
ECCENTRICITY   = .00114415
INCLINATION    = 62.7831
RA_OF_ASC_NODE = 243.1188
ARG_OF_PERICENTER = 296.0851
MEAN_ANOMALY   = 63.9070

EPHEMERIS_TYPE = 0
CLASSIFICATION_TYPE = U
NORAD_CAT_ID   = 20666
ELEMENT_SET_NO = 999
REV_AT_EPOCH   = 92274
BSTAR          = .22543347E-3
MEAN_MOTION_DOT = .2853E-4
MEAN_MOTION_DDOT = 0

CCSDS_OMM_VERS = 2.0
CREATION_DATE  = 
ORIGINATOR     = 

OBJECT_NAME    = SL-8 R/B
OBJECT_ID      = 1990-078B
CENTER_NAME    = EARTH
REF_FRAME      = TEME
TIME_SYSTEM    = UTC
MEAN_ELEMENT_THEORY = SGP/SGP4

EPOCH          = 2025-11-26T13:33:09.089856
MEAN_MOTION    = 14.84943839
ECCENTRICITY   = .03772383
INCLINATION    = 82.9053
RA_OF_ASC_NODE = 343.7774
ARG_OF_PERICENTER = 0.2000
MEAN_ANOMALY   = 359.9295

EPHEMERIS_TYPE = 0
CLASSIFICATION_TYPE = U
NORAD_CAT_ID   = 20775
ELEMENT_SET_NO = 999
REV_AT_EPOCH   = 79397
BSTAR          = .8348455E-3
MEAN_MOTION_DOT = .26974E-3
MEAN_MOTION_DDOT = 0

CCSDS_OMM_VERS = 2.0
CREATION_DATE  = 
ORIGINATOR     = 

OBJECT_NAME    = SL-8 R/B
OBJECT_ID      = 1991-006B
CENTER_NAME    = EARTH
REF_FRAME      = TEME
TIME_SYSTEM    = UTC
MEAN_ELEMENT_THEORY = SGP/SGP4

EPOCH          = 2025-11-26T22:01:33.041856
MEAN_MOTION    = 13.77487368
ECCENTRICITY   = .0021835
INCLINATION    = 82.9430
RA_OF_ASC_NODE = 246.4807
ARG_OF_PERICENTER = 326.4045
MEAN_ANOMALY   = 103.5392

EPHEMERIS_TYPE = 0
CLASSIFICATION_TYPE = U
NORAD_CAT_ID   = 21088
ELEMENT_SET_NO = 999
REV_AT_EPOCH   = 74992
BSTAR          = .96772E-4
MEAN_MOTION_DOT = .111E-5
MEAN_MOTION_DDOT = 0

CCSDS_OMM_VERS = 2.0
CREATION_DATE  = 
ORIGINATOR     = 

OBJECT_NAME    = OKEAN-3
OBJECT_ID      = 1991-039A
CENTER_NAME    = EARTH
REF_FRAME      = TEME
TIME_SYSTEM    = UTC
MEAN_ELEMENT_THEORY = SGP/SGP4

EPOCH          = 2025-11-26T18:45:31.719168
MEAN_MOTION    = 15.03961519
ECCENTRICITY   = .00138402
INCLINATION    = 82.5175
RA_OF_ASC_NODE = 76.4901
ARG_OF_PERICENTER = 324.6664
MEAN_ANOMALY   = 35.3643

EPHEMERIS_TYPE = 0
CLASSIFICATION_TYPE = U
NORAD_CAT_ID   = 21397
ELEMENT_SET_NO = 999
REV_AT_EPOCH   = 84956
BSTAR          = .36896164E-3
MEAN_MOTION_DOT = .5128E-4
MEAN_MOTION_DDOT = 0

